ELECTRON R/B
1 68800U 26088J   26113.86170093  .00637055  22657-5  47113-3 0  9995
2 68800  97.4982 264.6236 0273619 210.4209 148.0935 15.69511433   118
ELECTRON KICK STAGE R/B
1 68801U 26088K   26114.88540975  .00255201  23514-5  32364-3 0  9993
2 68801  97.4749 265.6383 0259042 258.0339  99.1777 15.66715126   279
STARLINK-37471
1 68802U 26089A   26120.91668981 -.01981932  00000+0 -90235-2 0  9993
2 68802  97.2855 326.3275 0001573 104.7057 176.8840 15.86637004  2466
STARLINK-37460
1 68803U 26089B   26120.91668981 -.01980872  00000+0 -89102-2 0  9997
2 68803  97.2857 326.3291 0001554 103.2329 181.4084 15.86881194  2409
STARLINK-37473
1 68804U 26089C   26120.91668981 -.01981006  00000+0 -88238-2 0  9997
2 68804  97.2855 326.3305 0001693 100.1069 187.8263 15.87078196  2405
STARLINK-36832
1 68805U 26089D   26120.91668981 -.01963258  00000+0 -86480-2 0  9994
2 68805  97.2851 326.3317 0001579 102.9875 188.0977 15.87277559  2402
STARLINK-37370
1 68806U 26089E   26120.91668981 -.01967909  00000+0 -85914-2 0  9993
2 68806  97.2853 326.3332 0001513 104.4821 189.8801 15.87465762  2408
STARLINK-37366
1 68807U 26089F   26120.91668981 -.01908462  00000+0 -84262-2 0  9998
2 68807  97.2851 326.3342 0001488 102.9084 194.4423 15.87678680  2400
STARLINK-37446
1 68808U 26089G   26120.91668981 -.01891870  00000+0 -82597-2 0  9992
2 68808  97.2852 326.3356 0001473 100.9284 199.4972 15.87871544  2409
STARLINK-37405
1 68809U 26089H   26120.91668981 -.01895902  00000+0 -82004-2 0  9996
2 68809  97.2850 326.3370 0001459  99.3882 204.1411 15.88066082  2465
STARLINK-37447
1 68810U 26089J   26120.91668981 -.01887737  00000+0 -80867-2 0  9990
2 68810  97.2848 326.3383 0001519  99.4245 207.2650 15.88242088  2404
STARLINK-37442
1 68811U 26089K   26120.91668981 -.01865090  00000+0 -78983-2 0  9995
2 68811  97.2848 326.3393 0001447  95.4143 214.2610 15.88429352  2460
STARLINK-37431
1 68812U 26089L   26120.91668981 -.01877701  00000+0 -78853-2 0  9994
2 68812  97.2844 326.3406 0001425 100.1441 212.5921 15.88620196  2402
STARLINK-37426
1 68813U 26089M   26120.91668981 -.01871884  00000+0 -77808-2 0  9990
2 68813  97.2845 326.3421 0001422  99.6093 216.0338 15.88812265  2404
STARLINK-37459
1 68814U 26089N   26120.91668981 -.01864034  00000+0 -76722-2 0  9994
2 68814  97.2840 326.3430 0001398 102.6500 215.9786 15.88993094  2405
STARLINK-37425
1 68815U 26089P   26120.91668981 -.01857287  00000+0 -75024-2 0  9991
2 68815  97.2838 326.3455 0001450  95.3683 229.1969 15.89349733  2405
STARLINK-37315
1 68816U 26089Q   26120.91668981 -.01857124  00000+0 -75673-2 0  9992
2 68816  97.2840 326.3444 0001407 101.9067 219.6039 15.89178548  2405
STARLINK-37444
1 68817U 26089R   26120.91668981 -.02140127  12077-2 -74496-2 0  9994
2 68817  97.2833 326.3465 0001400 100.3694 227.2648 15.89517370  2460
STARLINK-37450
1 68818U 26089S   26120.91668981 -.02118843  11872-2 -73088-2 0  9993
2 68818  97.2835 326.3478 0001493  94.9143 235.4886 15.89696698  2406
STARLINK-37409
1 68819U 26089T   26120.91668981 -.02113933  11840-2 -72323-2 0  9995
2 68819  97.2833 326.3491 0001399 102.5037 230.9185 15.89860220  2409
STARLINK-37470
1 68820U 26089U   26120.91668981 -.02096696  11722-2 -69833-2 0  9994
2 68820  97.2830 326.3523 0001372  99.6564 242.0413 15.90392806  2406
STARLINK-37421
1 68821U 26089V   26120.91668981 -.02114240  11865-2 -71673-2 0  9994
2 68821  97.2834 326.3508 0001437 101.3961 234.8005 15.90043278  2400
STARLINK-37462
1 68822U 26089W   26120.91668981 -.02102375  11761-2 -70646-2 0  9995
2 68822  97.2831 326.3513 0001370  93.8986 245.0508 15.90217319  2403
STARLINK-37410
1 68823U 26089X   26120.91668981 -.02074826  11509-2 -68584-2 0  9993
2 68823  97.2832 326.3543 0001312  98.2809 246.3801 15.90540467  2400
STARLINK-37443
1 68824U 26089Y   26120.91668981 -.02066913  11444-2 -67809-2 0  9999
2 68824  97.2830 326.3557 0001324  92.5990 255.1022 15.90688920  2461
STARLINK-37015
1 68825U 26089Z   26120.91668981 -.02092605  11736-2 -68022-2 0  9999
2 68825  97.2828 326.3561 0001310  95.1300 255.2825 15.90873730  2404
COSMOS 2615
1 68826U 26090A   26114.73803336  .00037958  00000+0  20267-3 0  9995
2 68826  96.6459  34.2833 0011850 244.0774 115.9275 15.80198214   220
COSMOS 2616
1 68827U 26090B   26114.67468931  .00037787  00000+0  20159-3 0  9997
2 68827  96.6473  34.2234 0011965 243.5513 116.4530 15.80215914   210
COSMOS 2617
1 68828U 26090C   26114.73795262  .00038137  00000+0  20274-3 0  9993
2 68828  96.6472  34.2814 0011834 242.5779 117.4288 15.80294056   228
COSMOS 2618
1 68829U 26090D   26114.73793650  .00031010  00000+0  16485-3 0  9995
2 68829  96.6466  34.2825 0012600 241.1997 118.8008 15.80312640   228
HJS-9A
1 68831U 26091A   26120.83002816  .00027699  00000+0  13075-2 0  9993
2 68831  55.0021 228.6170 0008512 303.9616  56.0594 15.19273304  1006
HJS-9B
1 68832U 26091B   26120.69958377  .00001895  00000+0  10392-3 0  9990
2 68832  55.0011 229.1963 0008862 291.9985  68.0093 15.19148891   980
HJS-9C
1 68833U 26091C   26120.82907932  .00003276  00000+0  16811-3 0  9994
2 68833  54.9991 228.6119 0009061 304.3281  55.6881 15.19292524  1007
HJS-9D
1 68834U 26091D   26118.72311870  .00001556  00000+0  85606-4 0  9999
2 68834  54.9992 237.8086 0009094 308.4257  51.5946 15.20161859   686
PRSC-E03
1 68835U 26092A   26118.07999911  .00002925  00000+0  20185-3 0  9998
2 68835  38.0027  25.0972 0004773 334.4350  25.6175 15.06422626   392
PROGRESS-MS 34
1 68837U 26093A   26120.65152929  .00006769  00000+0  13072-3 0  9995
2 68837  51.6314 175.3907 0007169   8.3355 351.7751 15.49036282   530
